satname,norad_id,inclination_deg,eccentricity,mean_motion_rev_per_day,perigee_km,apogee_km,l1,l2
STARLINK-1266,45383,53.0546,0.0001393,15.06398049,546.2528355916647,548.1822393658058,1 45383U 20019Z   25324.74121667 -.00002072  00000+0 -12027-3 0  9992,2 45383  53.0546 275.7088 0001393  90.3415 269.7733 15.06398049313585
STARLINK-1267,45384,53.0544,0.0001555,15.06394699,546.1509105602927,548.3046990145813,1 45384U 20019AA  25324.19577786  .00001229  00000+0  10143-3 0  9997,2 45384  53.0544 278.8121 0001555  89.6370 270.4797 15.06394699313493
STARLINK-1272,45386,53.053,0.0007318,15.37210505,449.3625336967307,459.36258004816864,1 45386U 20019AC  25324.91668980  .00074453  00000+0  20028-2 0  9997,2 45386  53.0530 268.6343 0007318  80.1736 173.9659 15.37210505  5767
STARLINK-1274,45387,53.0338,0.0004062,15.31437632,468.73988066646234,474.3045438104855,1 45387U 20019AD  25324.37875115  .00027206  00000+0  89230-3 0  9993,2 45387  53.0338 259.2184 0004062  29.7601 330.3629 15.31437632313782
STARLINK-1280,45388,53.0532,0.0007662,15.4302905,431.9535897515898,442.3973745992753,1 45388U 20019AE  25324.91668980  .00118315  00000+0  26071-2 0  9999,2 45388  53.0532 287.2990 0007662  67.1097 194.7811 15.43029050  5865
STARLINK-1283,45389,53.0531,0.0008991,15.33338151,459.70766169612307,472.0145390802418,1 45389U 20019AF  25324.91668980  .00055025  00000+0  16813-2 0  9991,2 45389  53.0531 267.7507 0008991  75.3259  77.3499 15.33338151  5850
STARLINK-1284,45390,53.056,0.000133,15.06433401,546.1881328320251,548.0302483187179,1 45390U 20019AG  25324.61218333  .00015056  00000+0  10266-2 0  9999,2 45390  53.0560 276.2881 0001330  98.1387 261.9752 15.06433401313566
STARLINK-1297,45395,53.0551,0.0001541,15.06393171,546.1652884807017,548.2996873568782,1 45395U 20019AM  25324.58272076  .00000857  00000+0  76438-4 0  9992,2 45395  53.0551 276.4169 0001541  86.9899 273.1266 15.06393171312742
STARLINK-1307,45397,53.0537,0.000149,15.06395999,546.1919416919209,548.2556992164155,1 45397U 20019AP  25324.57534617  .00005209  00000+0  36840-3 0  9993,2 45397  53.0537 276.4487 0001490  91.9031 268.2129 15.06395999313382
STARLINK-1255,45399,53.0483,0.0006169,15.33183317,462.0995230380104,470.54421639146494,1 45399U 20019AR  25324.37559912  .00063954  00000+0  19608-2 0  9991,2 45399  53.0483 261.3551 0006169  83.0271 277.1431 15.33183317313569
STARLINK-1260,45404,53.0535,0.0001525,15.06390389,546.1848942784527,548.2971345728529,1 45404U 20019AW  25324.11183952  .00009541  00000+0  65870-3 0  9992,2 45404  53.0535 268.5332 0001525  92.5545 267.5619 15.06390389313346
STARLINK-1263,45405,53.0558,0.0001827,15.06398329,545.9514172001318,548.4819414345548,1 45405U 20019AX  25324.56152968 -.00001091  00000+0 -54328-4 0  9996,2 45405  53.0558 266.5145 0001827  87.6328 272.4870 15.06398329313415
STARLINK-1265,45406,53.0558,0.0001362,15.06397483,546.2760386672317,548.1625057157771,1 45406U 20019AY  25324.56888433 -.00000187  00000+0  63095-5 0  9996,2 45406  53.0558 266.4826 0001362  85.4692 274.6452 15.06397483313415
STARLINK-1278,45408,53.0532,0.0006916,15.36065651,453.0293442245784,462.4847528725304,1 45408U 20019BA  25324.61018485  .00093898  00000+0  26114-2 0  9994,2 45408  53.0532 290.1314 0006916  57.0257 303.1409 15.36065651313093
STARLINK-1296,45412,53.0554,0.0001454,15.0641223,546.1671347730089,548.1810152336202,1 45412U 20019BE  25324.17449576  .00011758  00000+0  80665-3 0  9996,2 45412  53.0554 268.2502 0001454  94.8689 265.2466 15.06412230313353
STARLINK-1298,45413,53.0465,0.0008839,15.55510349,394.67772635891015,406.66130051336404,1 45413U 20019BF  25324.18562622  .00045047  00000+0  65005-3 0  9995,2 45413  53.0465 237.6171 0008839  30.4630 329.6892 15.55510349313883
STARLINK-1309,45414,53.0547,0.0001345,15.06412064,546.2431293545524,548.1060381705838,1 45414U 20019BG  25324.12289830  .00011378  00000+0  78124-3 0  9993,2 45414  53.0547 268.4836 0001345  91.4774 268.6369 15.06412064313338
STARLINK-1316,45415,53.0557,0.0001507,15.06390517,546.1969677122916,548.2842765275982,1 45415U 20019BH  25324.54679157  .00001872  00000+0  14457-3 0  9992,2 45415  53.0557 266.5801 0001507  89.7303 270.3859 15.06390517313432
STARLINK-1318,45416,53.0499,0.0005814,15.63152401,374.62931807304176,382.486002624094,1 45416U 20019BJ  25324.71898266  .00053546  00000+0  57733-3 0  9995,2 45416  53.0499 225.4901 0005814 104.1627 256.0033 15.63152401314010
STARLINK-1286,45417,53.0546,0.0004654,15.38264479,448.0628546531225,454.419639925698,1 45417U 20019BK  25324.22900698  .00069611  00000+0  18123-2 0  9994,2 45417  53.0546 292.1312 0004654  64.2054 295.9428 15.38264479313304
STARLINK-1308,45419,53.054,0.0001237,15.06398248,546.3602612903078,548.0735938519883,1 45419U 20019BM  25324.64722028  .00000530  00000+0  54494-4 0  9999,2 45419  53.0540 296.1266 0001237  89.7628 270.3503 15.06398248313033
STARLINK-1329,45531,53.0544,0.0001652,15.06391963,546.0921186442174,548.3802619462913,1 45531U 20025A   25324.48320912  .00001728  00000+0  13492-3 0  9991,2 45531  53.0544 236.8663 0001652  76.8433 283.2740 15.06391963308639
STARLINK-1338,45532,53.054,0.0001743,15.06401041,546.001279727504,548.4154551225893,1 45532U 20025B   25324.75965356  .00004219  00000+0  30197-3 0  9998,2 45532  53.0540 235.6231 0001743  94.4239 265.6949 15.06401041308673
STARLINK-1350,45535,53.0734,0.0002422,15.32961102,465.32540505297493,468.64118132299427,1 45535U 20025E   25323.91802695  .00010187  00000+0  32658-3 0  9999,2 45535  53.0734 187.4441 0002422  97.6167 262.5109 15.32961102309301
STARLINK-1362,45538,53.0531,0.0001415,15.06396984,546.2408634303956,548.2007396882364,1 45538U 20025H   25324.46010417  .00004343  00000+0  31028-3 0  9993,2 45538  53.0531 236.6861 0001415 102.7060 257.4087 15.06396984308637
STARLINK-1368,45540,53.054,0.000193,15.06391896,545.8997985770784,548.5729927077964,1 45540U 20025K   25324.46476898  .00000303  00000+0  39282-4 0  9998,2 45540  53.0540 236.9482 0001930  95.6978 264.4231 15.06391896308627
STARLINK-1371,45542,53.0538,0.0001725,15.06387136,546.0563550987627,548.4456139534241,1 45542U 20025M   25324.50162941  .00001546  00000+0  12273-3 0  9996,2 45542  53.0538 236.7798 0001725  86.1302 273.9884 15.06387136308634
STARLINK-1372,45543,53.0546,0.000157,15.06396653,546.134534696098,548.3090973643311,1 45543U 20025N   25324.47215080  .00006562  00000+0  45905-3 0  9997,2 45543  53.0546 236.9150 0001570  81.8393 278.2774 15.06396653307727
STARLINK-1373,45544,53.0532,0.000112,15.06381926,546.4913074563037,548.0425979417068,1 45544U 20025P   25324.75595573  .00001251  00000+0  10292-3 0  9998,2 45544  53.0532 235.6393 0001120  82.2312 277.8804 15.06381926308676
STARLINK-1294,45551,53.0447,0.0006288,15.63362675,373.7035628900139,382.20002015423324,1 45551U 20025W   25323.56859907  .00074543  00000+0  79275-3 0  9998,2 45551  53.0447 166.6123 0006288 120.0054 240.1584 15.63362675309545
STARLINK-1325,45554,53.0509,0.0003606,15.6896913,359.417232510802,364.2781094555148,1 45554U 20025Z   25324.91668980  .00227364  00000+0  18869-2 0  9992,2 45554  53.0509 152.5061 0003606 261.4140 176.7163 15.68969130  5846
STARLINK-1327,45555,53.0542,0.0001503,15.06391572,546.1965048942375,548.2782724354702,1 45555U 20025AA  25324.39658948  .00000491  00000+0  51894-4 0  9995,2 45555  53.0542 217.2541 0001503  88.2949 271.8212 15.06391572308896
STARLINK-1356,45564,53.0544,0.0001446,15.06399453,546.2118287711055,548.214640058899,1 45564U 20025AK  25324.13488692  .00009328  00000+0  64426-3 0  9996,2 45564  53.0544 218.4278 0001446  95.1923 264.9231 15.06399453308859
STARLINK-1357,45565,53.0601,0.0009623,15.35430467,453.0621932542408,466.222183079788,1 45565U 20025AL  25324.65439027  .00065041  00000+0  18551-2 0  9993,2 45565  53.0601 197.2440 0009623  81.0642 279.1448 15.35430467309207
STARLINK-1361,45567,53.0526,0.0001539,15.06395731,546.1588286826473,548.2904549960058,1 45567U 20025AN  25324.68409407  .00007500  00000+0  52192-3 0  9993,2 45567  53.0526 215.9606 0001539  92.3556 267.7609 15.06395731308948
STARLINK-1363,45568,53.053,0.0007104,15.44746233,427.285809036679,436.96182760735064,1 45568U 20025AP  25324.68894162  .00059500  00000+0  12512-2 0  9998,2 45568  53.0530 208.3346 0007104 129.6282 230.5351 15.44746233309048
STARLINK-1366,45569,53.0518,0.000506,15.42768906,434.4926636627697,441.3905352053962,1 45569U 20025AQ  25324.67026201  .00017527  00000+0  40291-3 0  9998,2 45569  53.0518 208.0950 0005060 126.7015 233.4455 15.42768906309040
STARLINK-1376,45570,53.054,0.0001426,15.06400505,546.2224557027903,548.1975646700948,1 45570U 20025AR  25323.68520041 -.00000863  00000+0 -39017-4 0  9993,2 45570  53.0540 220.4494 0001426  91.0159 269.0994 15.06400505308784
STARLINK-1320,45572,53.0552,0.0009935,15.45123511,424.25029099489257,437.78007638388317,1 45572U 20025AT  25324.52541657  .00020440  00000+0  43198-3 0  9990,2 45572  53.0552 154.6962 0009935  89.9278 270.2866 15.45123511309806
STARLINK-1321,45573,53.0544,0.0001561,15.06394022,546.1488299379562,548.3109294778014,1 45573U 20025AU  25324.40119111  .00001302  00000+0  10631-3 0  9996,2 45573  53.0544 207.2341 0001561  88.5399 271.5769 15.06394022308731
STARLINK-1328,45576,53.0469,0.0009301,15.75888407,335.85380739388347,348.35480026726964,1 45576U 20025AX  25324.91668980  .00155798  00000+0  97154-3 0  9992,2 45576  53.0469 171.6317 0009301 113.6294 185.0018 15.75888407  5912
STARLINK-1331,45578,53.0538,0.0001572,15.06402103,546.1164487735705,548.2937763337577,1 45578U 20025AZ  25324.37906302  .00003422  00000+0  24849-3 0  9994,2 45578  53.0538 207.3328 0001572  80.2061 279.9106 15.06402103309044
STARLINK-1333,45580,53.0532,0.0001562,15.06399644,546.1309094120406,548.2943886423973,1 45580U 20025BB  25324.71726036  .00003999  00000+0  28723-3 0  9993,2 45580  53.0532 215.8119 0001562  93.3433 266.7735 15.06399644308945
